     3.02           N: GNSS NAV DATA    C: BEIDOU           RINEX VERSION / TYPE                                                
Версия от 220825                        20240223 06:29:43UTCPGM / RUN BY / DATE                                                 
                                                            END OF HEADER                                                       
C23 2024 02 22 01 00 00-0.779585679993D-03 0.209343653523D-11 0.000000000000D+00
     0.100000000000D+01 0.297812500000D+02 0.449518724259D-08 0.120144818402D+01
     0.143609941006D-05 0.178025802597D-03 0.490667298436D-05 0.528263993454D+04
     0.349200000000D+06 0.116415321827D-07 0.111066729854D+01 0.884756445885D-08
     0.944798846687D+00 0.252812500000D+03 0.870674986377D+00-0.709029533926D-08
     0.350371737246D-09 0.000000000000D+00 0.946000000000D+03 0.000000000000D+00
     0.200000000000D+01 0.000000000000D+00 0.224000000000D-07 0.224000000000D-07
     0.349200000000D+06
C24 2024 02 22 01 00 00 0.906461500563D-03 0.348325812638D-10 0.000000000000D+00
     0.100000000000D+01 0.300156250000D+02 0.442375569575D-08 0.273450478950D+01
     0.151153653860D-05 0.798443914391D-03 0.508734956384D-05 0.528263044930D+04
     0.349200000000D+06 0.745058059692D-08 0.111048431821D+01 0.135041773319D-07
     0.944792896999D+00 0.249906250000D+03 0.902354433496D+00-0.702779273578D-08
     0.367515308488D-09 0.000000000000D+00 0.946000000000D+03 0.000000000000D+00
     0.200000000000D+01 0.000000000000D+00 0.380000000000D-08 0.380000000000D-08
     0.349200000000D+06
C25 2024 02 22 01 00 00 0.331957940944D-03 0.928412902113D-11 0.000000000000D+00
     0.100000000000D+01 0.338750000000D+02 0.441196949052D-08 0.202515595578D+01
     0.173225998879D-05 0.585728674196D-03 0.519677996635D-05 0.528261221504D+04
     0.349200000000D+06-0.372529029846D-08 0.108667393816D+01-0.102445483208D-07
     0.946322486107D+00 0.248062500000D+03 0.809448462012D+00-0.704672209569D-08
     0.403588239642D-09 0.000000000000D+00 0.946000000000D+03 0.000000000000D+00
     0.200000000000D+01 0.000000000000D+00 0.800000000000D-09 0.800000000000D-09
     0.349200000000D+06
C26 2024 02 22 01 00 00-0.252603553236D-03-0.548094902797D-11 0.000000000000D+00
     0.100000000000D+01 0.301093750000D+02 0.440732643998D-08-0.262546181341D+01
     0.153435394168D-05 0.910776667297D-03 0.526756048202D-05 0.528261144257D+04
     0.349200000000D+06-0.256113708019D-07 0.108727921905D+01-0.512227416039D-08
     0.946371780595D+00 0.247390625000D+03 0.743748906162D+00-0.698886254275D-08
     0.366086677551D-09 0.000000000000D+00 0.946000000000D+03 0.000000000000D+00
     0.200000000000D+01 0.000000000000D+00-0.520000000000D-08-0.520000000000D-08
     0.349200000000D+06
C27 2024 02 22 01 00 00 0.274553894997D-03 0.535749222763D-11 0.000000000000D+00
     0.100000000000D+01 0.994375000000D+02 0.359872132976D-08-0.199009281718D+01
     0.494113191962D-05 0.624310225248D-03 0.985292717814D-05 0.528262601852D+04
     0.349200000000D+06 0.512227416039D-08-0.306876795816D+01-0.651925802231D-08
     0.960490435162D+00 0.163468750000D+03 0.110127654358D+01-0.661991860332D-08
     0.392873507616D-11 0.000000000000D+00 0.946000000000D+03 0.000000000000D+00
     0.200000000000D+01 0.000000000000D+00-0.490000000000D-08-0.490000000000D-08
     0.349200000000D+06
C28 2024 02 22 01 00 00 0.208980636671D-03 0.419930756834D-11 0.000000000000D+00
     0.100000000000D+01 0.104000000000D+03 0.364872341255D-08 0.964364609428D+00
     0.520423054695D-05 0.167560880072D-03 0.101597979665D-04 0.528263875771D+04
     0.349200000000D+06 0.102445483208D-07-0.306900981070D+01-0.125728547573D-07
     0.960367923087D+00 0.157875000000D+03-0.114650150761D+01-0.661991860332D-08
     0.964325882329D-11 0.000000000000D+00 0.946000000000D+03 0.000000000000D+00
     0.200000000000D+01 0.000000000000D+00-0.470000000000D-08-0.470000000000D-08
     0.349200000000D+06
C29 2024 02 22 01 00 00 0.244984985329D-03 0.496047647402D-11 0.000000000000D+00
     0.100000000000D+01 0.114703125000D+03 0.364015162693D-08 0.299515065225D+01
     0.556511804462D-05 0.189463375136D-03 0.103353522718D-04 0.528262380600D+04
     0.349200000000D+06 0.465661287308D-09-0.310855570188D+01-0.838190317154D-08
     0.958525976100D+00 0.153234375000D+03 0.844759095630D+00-0.661956144559D-08
    -0.317870383435D-10 0.000000000000D+00 0.946000000000D+03 0.000000000000D+00
     0.200000000000D+01 0.000000000000D+00-0.600000000000D-09-0.600000000000D-09
     0.349200000000D+06
C30 2024 02 22 01 00 00-0.282196560875D-04-0.494715379773D-11 0.000000000000D+00
     0.100000000000D+01 0.106250000000D+03 0.366586698379D-08-0.204404080769D+01
     0.515859574079D-05 0.556580256671D-03 0.977935269475D-05 0.528261770058D+04
     0.349200000000D+06 0.325962901115D-08-0.310806381908D+01-0.111758708954D-07
     0.958478848194D+00 0.162812500000D+03 0.422176601579D+00-0.662134723426D-08
    -0.292869342041D-10 0.000000000000D+00 0.946000000000D+03 0.000000000000D+00
     0.200000000000D+01 0.000000000000D+00-0.103000000000D-07-0.103000000000D-07
     0.349200000000D+06
C32 2024 02 22 01 00 00-0.571296433918D-03-0.599520433298D-11 0.000000000000D+00
     0.100000000000D+01-0.129843750000D+03 0.355014787791D-08-0.189963304076D+01
    -0.654254108667D-05 0.651616021059D-03 0.450154766440D-05 0.528263515091D+04
     0.349200000000D+06-0.423751771450D-07-0.989156992256D+00-0.791624188423D-08
     0.975553875872D+00 0.275359375000D+03-0.108507476535D+01-0.683314177064D-08
    -0.358943522867D-09 0.000000000000D+00 0.946000000000D+03 0.000000000000D+00
     0.200000000000D+01 0.000000000000D+00-0.760000000000D-08-0.760000000000D-08
     0.349200000000D+06
C33 2024 02 22 01 00 00-0.950851594098D-03-0.327116111976D-11 0.000000000000D+00
     0.100000000000D+01-0.132531250000D+03 0.358050628532D-08-0.851162358283D+00
    -0.654021278024D-05 0.442918506451D-03 0.421749427915D-05 0.528263206673D+04
     0.349200000000D+06 0.000000000000D+00-0.989281277388D+00-0.344589352608D-07
     0.975586618904D+00 0.285000000000D+03-0.558465072232D+00-0.681635535713D-08
    -0.332871008271D-09 0.000000000000D+00 0.946000000000D+03 0.000000000000D+00
     0.200000000000D+01 0.000000000000D+00-0.448000000000D-07-0.448000000000D-07
     0.349200000000D+06
C34 2024 02 22 01 00 00 0.374509720132D-03 0.820854495487D-11 0.000000000000D+00
     0.100000000000D+01 0.115046875000D+03 0.358264923172D-08 0.837999625591D+00
     0.565871596336D-05 0.612961710431D-03 0.112401321530D-04 0.528263114929D+04
     0.349200000000D+06 0.605359673500D-08-0.310660946346D+01 0.158324837685D-07
     0.956641228518D+00 0.130296875000D+03 0.615467669339D+00-0.663634785910D-08
    -0.382158775590D-10 0.000000000000D+00 0.946000000000D+03 0.000000000000D+00
     0.200000000000D+01 0.000000000000D+00-0.660000000000D-08-0.660000000000D-08
     0.349200000000D+06
C35 2024 02 22 01 00 00 0.428053550422D-03-0.890398865749D-11 0.000000000000D+00
     0.100000000000D+01 0.123078125000D+03 0.364622330841D-08 0.254247852268D+01
     0.606104731560D-05 0.892197247595D-03 0.103795900941D-04 0.528263028145D+04
     0.349200000000D+06-0.311993062496D-07-0.310666644705D+01-0.116415321827D-07
     0.956715094178D+00 0.150375000000D+03 0.422143990209D+00-0.663099049308D-08
    -0.321441960777D-10 0.000000000000D+00 0.946000000000D+03 0.000000000000D+00
     0.200000000000D+01 0.000000000000D+00-0.330000000000D-08-0.330000000000D-08
     0.349200000000D+06
C36 2024 02 22 01 00 00-0.656757038087D-05 0.133884014986D-10 0.000000000000D+00
     0.100000000000D+01 0.305937500000D+02 0.444161358246D-08 0.775550869744D+00
     0.163586810231D-05 0.452801468782D-03 0.513158738613D-05 0.528264367485D+04
     0.349200000000D+06-0.279396772385D-08 0.110944338470D+01-0.116415321827D-07
     0.946244154159D+00 0.248515625000D+03-0.106266875155D+01-0.704993651530D-08
     0.359300680601D-09 0.000000000000D+00 0.946000000000D+03 0.000000000000D+00
     0.200000000000D+01 0.000000000000D+00-0.210000000000D-07-0.210000000000D-07
     0.349200000000D+06
C37 2024 02 22 01 00 00-0.938071636483D-03-0.306688008323D-11 0.000000000000D+00
     0.100000000000D+01 0.280156250000D+02 0.441125517506D-08 0.140875538212D+01
     0.143563374877D-05 0.517372158356D-03 0.511156395078D-05 0.528263037491D+04
     0.349200000000D+06 0.419095158577D-08 0.110929923314D+01-0.791624188423D-08
     0.946257708095D+00 0.250078125000D+03-0.130140665681D+00-0.704529346475D-08
     0.328585115460D-09 0.000000000000D+00 0.946000000000D+03 0.000000000000D+00
     0.200000000000D+01 0.000000000000D+00-0.167000000000D-07-0.167000000000D-07
     0.349200000000D+06
C38 2024 02 22 01 00 00 0.138303381391D-03 0.244071429734D-11 0.000000000000D+00
     0.100000000000D+01 0.491875000000D+02 0.133326982175D-08 0.449844418648D+00
     0.168522819877D-05 0.200276682153D-02-0.119456090033D-04 0.649318661308D+04
     0.349200000000D+06 0.201631337404D-06-0.176324239259D+01-0.135041773319D-06
     0.100237386316D+01 0.607218750000D+03-0.255683835245D+01-0.267153985179D-08
     0.442875590403D-10 0.000000000000D+00 0.946000000000D+03 0.000000000000D+00
     0.200000000000D+01 0.000000000000D+00 0.230000000000D-08 0.230000000000D-08
     0.349200000000D+06
C39 2024 02 22 01 00 00-0.722019467503D-05-0.190070181816D-12 0.000000000000D+00
     0.100000000000D+01-0.285937500000D+01 0.818962684512D-09-0.140788087749D+01
    -0.336207449436D-06 0.313606485724D-02 0.220164656639D-04 0.649332099533D+04
     0.349200000000D+06-0.298023223877D-07 0.328753292523D+00-0.186264514923D-06
     0.963717584168D+00-0.430687500000D+03-0.278162745818D+01-0.158113728929D-08
     0.837534886690D-09 0.000000000000D+00 0.946000000000D+03 0.000000000000D+00
     0.200000000000D+01 0.000000000000D+00 0.650000000000D-08 0.650000000000D-08
     0.349200000000D+06
